{
  "norad_id": 48566,
  "name": "STARLINK-2214",
  "history": [
    {
      "epoch": "2026-04-14T20:52:48.432864Z",
      "apogee_km": 548.1198323333683,
      "perigee_km": 546.3206245254232,
      "latitude_deg": -6.318591702935288e-05,
      "longitude_deg": -177.07197927240435,
      "height_km": 548.0843996947473,
      "semi_major_axis_km": 6925.357228429396,
      "eccentricity": 0.0001299,
      "inclination_deg": 53.0549,
      "raan_deg": 339.1701,
      "arg_perigee_deg": 89.148,
      "mean_anomaly_deg": 270.9657,
      "mean_motion_rev_day": 15.06397171
    },
    {
      "epoch": "2026-04-15T20:45:54.080064Z",
      "apogee_km": 548.167016062419,
      "perigee_km": 546.2888570916202,
      "latitude_deg": -1.084175384526049e-05,
      "longitude_deg": 179.20581373598483,
      "height_km": 548.059609579607,
      "semi_major_axis_km": 6925.36493657702,
      "eccentricity": 0.0001356,
      "inclination_deg": 53.0545,
      "raan_deg": 334.7023,
      "arg_perigee_deg": 87.2077,
      "mean_anomaly_deg": 272.9067,
      "mean_motion_rev_day": 15.06394656
    },
    {
      "epoch": "2026-04-16T07:54:35.869248Z",
      "apogee_km": 547.4913687465978,
      "perigee_km": 546.6049450465152,
      "latitude_deg": -6.627243602761591e-06,
      "longitude_deg": 9.488689700085608,
      "height_km": 548.3021488409877,
      "semi_major_axis_km": 6925.185156896556,
      "eccentricity": 6.4e-05,
      "inclination_deg": 53.0542,
      "raan_deg": 332.617,
      "arg_perigee_deg": 147.8524,
      "mean_anomaly_deg": 212.2504,
      "mean_motion_rev_day": 15.06453316
    },
    {
      "epoch": "2026-04-18T00:00:04.000320Z",
      "apogee_km": 535.7670464269513,
      "perigee_km": 534.0397541525354,
      "latitude_deg": 50.549210415065566,
      "longitude_deg": -175.735731597813,
      "height_km": 540.0110555173063,
      "semi_major_axis_km": 6913.040400289743,
      "eccentricity": 0.00012493,
      "inclination_deg": 53.0654,
      "raan_deg": 325.1004,
      "arg_perigee_deg": 60.337,
      "mean_anomaly_deg": 14.2312,
      "mean_motion_rev_day": 15.10424841
    },
    {
      "epoch": "2026-04-18T20:00:01.000224Z",
      "apogee_km": 531.1141616901641,
      "perigee_km": 528.8925037591598,
      "latitude_deg": -49.53162285627321,
      "longitude_deg": 113.20557664556446,
      "height_km": 547.8770232798701,
      "semi_major_axis_km": 6908.140332724662,
      "eccentricity": 0.0001608,
      "inclination_deg": 53.0723,
      "raan_deg": 321.3369,
      "arg_perigee_deg": 151.4603,
      "mean_anomaly_deg": 136.8603,
      "mean_motion_rev_day": 15.12032183
    },
    {
      "epoch": "2026-04-19T20:00:01.999008Z",
      "apogee_km": 524.840054215978,
      "perigee_km": 523.9537688617365,
      "latitude_deg": -19.63918476663678,
      "longitude_deg": 153.4031117674836,
      "height_km": 530.2531204415195,
      "semi_major_axis_km": 6902.533911538857,
      "eccentricity": 6.42e-05,
      "inclination_deg": 53.081,
      "raan_deg": 316.8086,
      "arg_perigee_deg": 170.2781,
      "mean_anomaly_deg": 165.0932,
      "mean_motion_rev_day": 15.13874726
    },
    {
      "epoch": "2026-04-20T14:00:03.000384Z",
      "apogee_km": 521.9957344282348,
      "perigee_km": 518.3621154979191,
      "latitude_deg": 50.687367472284464,
      "longitude_deg": 8.892397912814811,
      "height_km": 524.7793936759547,
      "semi_major_axis_km": 6898.315924963076,
      "eccentricity": 0.00026337,
      "inclination_deg": 53.0866,
      "raan_deg": 313.4039,
      "arg_perigee_deg": 64.2936,
      "mean_anomaly_deg": 40.7564,
      "mean_motion_rev_day": 15.1526343
    },
    {
      "epoch": "2026-04-21T22:00:01.998720Z",
      "apogee_km": 514.5689990259843,
      "perigee_km": 511.04083676402206,
      "latitude_deg": -3.870470566765385,
      "longitude_deg": -49.7601367178525,
      "height_km": 514.4934724627813,
      "semi_major_axis_km": 6890.941917895003,
      "eccentricity": 0.000256,
      "inclination_deg": 53.0974,
      "raan_deg": 307.338,
      "arg_perigee_deg": 87.6535,
      "mean_anomaly_deg": 97.0311,
      "mean_motion_rev_day": 15.17696309
    },
    {
      "epoch": "2026-04-22T20:00:03.000384Z",
      "apogee_km": 509.67222032787777,
      "perigee_km": 505.5228766889468,
      "latitude_deg": 18.687098369922076,
      "longitude_deg": -42.373818421274585,
      "height_km": 507.37168666766445,
      "semi_major_axis_km": 6885.7345485084115,
      "eccentricity": 0.0003013,
      "inclination_deg": 53.105,
      "raan_deg": 303.1538,
      "arg_perigee_deg": 82.8863,
      "mean_anomaly_deg": 73.508,
      "mean_motion_rev_day": 15.19418282
    },
    {
      "epoch": "2026-04-23T16:00:01.999584Z",
      "apogee_km": 503.59641015476336,
      "perigee_km": 502.3095087105512,
      "latitude_deg": 29.03619191427013,
      "longitude_deg": -127.89816410211306,
      "height_km": 503.9936085217363,
      "semi_major_axis_km": 6881.089959432657,
      "eccentricity": 9.351e-05,
      "inclination_deg": 53.1104,
      "raan_deg": 299.3422,
      "arg_perigee_deg": 76.3196,
      "mean_anomaly_deg": 320.9284,
      "mean_motion_rev_day": 15.20956904
    },
    {
      "epoch": "2026-04-24T20:00:01.999008Z",
      "apogee_km": 499.3527511570901,
      "perigee_km": 498.3363332851495,
      "latitude_deg": -37.62969035712197,
      "longitude_deg": 106.00481221472735,
      "height_km": 511.53580439931653,
      "semi_major_axis_km": 6876.9815422211195,
      "eccentricity": 7.39e-05,
      "inclination_deg": 53.1193,
      "raan_deg": 293.9902,
      "arg_perigee_deg": 119.9921,
      "mean_anomaly_deg": 190.5687,
      "mean_motion_rev_day": 15.22320073
    },
    {
      "epoch": "2026-04-25T20:00:01.000224Z",
      "apogee_km": 494.174478863948,
      "perigee_km": 492.04714054206306,
      "latitude_deg": 29.268787481351044,
      "longitude_deg": 160.2519396067068,
      "height_km": 494.1294848681625,
      "semi_major_axis_km": 6871.247809703005,
      "eccentricity": 0.0001548,
      "inclination_deg": 53.128,
      "raan_deg": 289.3904,
      "arg_perigee_deg": 95.8081,
      "mean_anomaly_deg": 301.7565,
      "mean_motion_rev_day": 15.24225927
    },
    {
      "epoch": "2026-04-26T22:00:00.999936Z",
      "apogee_km": 488.0668200837581,
      "perigee_km": 486.23227821209457,
      "latitude_deg": -37.55602800665527,
      "longitude_deg": -45.54149272734289,
      "height_km": 500.05903072955664,
      "semi_major_axis_km": 6865.286549147926,
      "eccentricity": 0.00013361,
      "inclination_deg": 53.1369,
      "raan_deg": 284.3931,
      "arg_perigee_deg": 84.8177,
      "mean_anomaly_deg": 144.4857,
      "mean_motion_rev_day": 15.2621163
    },
    {
      "epoch": "2026-04-27T20:00:03.000384Z",
      "apogee_km": 483.6749907394578,
      "perigee_km": 482.2519984968749,
      "latitude_deg": -39.083253892879476,
      "longitude_deg": -18.41121779557469,
      "height_km": 496.26028333211616,
      "semi_major_axis_km": 6861.1004946181665,
      "eccentricity": 0.0001037,
      "inclination_deg": 53.1424,
      "raan_deg": 280.1529,
      "arg_perigee_deg": 96.2997,
      "mean_anomaly_deg": 135.3625,
      "mean_motion_rev_day": 15.27608588
    },
    {
      "epoch": "2026-04-28T20:00:01.000224Z",
      "apogee_km": 478.72797016959885,
      "perigee_km": 476.8960605926886,
      "latitude_deg": -17.41376702080634,
      "longitude_deg": 105.1912787695673,
      "height_km": 482.9239324745328,
      "semi_major_axis_km": 6855.949015381143,
      "eccentricity": 0.0001336,
      "inclination_deg": 53.1514,
      "raan_deg": 275.5167,
      "arg_perigee_deg": 92.1026,
      "mean_anomaly_deg": 246.1709,
      "mean_motion_rev_day": 15.29330652
    },
    {
      "epoch": "2026-04-29T18:00:02.000160Z",
      "apogee_km": 478.64663142616064,
      "perigee_km": 476.87232541754565,
      "latitude_deg": -9.731288125231972,
      "longitude_deg": 136.20378316837872,
      "height_km": 480.62754220526784,
      "semi_major_axis_km": 6855.896478421852,
      "eccentricity": 0.0001294,
      "inclination_deg": 53.1507,
      "raan_deg": 271.2621,
      "arg_perigee_deg": 90.8373,
      "mean_anomaly_deg": 257.1542,
      "mean_motion_rev_day": 15.29348231
    },
    {
      "epoch": "2026-04-30T16:00:03.000096Z",
      "apogee_km": 478.6586004140181,
      "perigee_km": 476.85015338661924,
      "latitude_deg": -1.8858240340683703,
      "longitude_deg": 166.9793930150964,
      "height_km": 478.90536247598294,
      "semi_major_axis_km": 6855.891376900318,
      "eccentricity": 0.00013189,
      "inclination_deg": 53.1508,
      "raan_deg": 267.0082,
      "arg_perigee_deg": 87.0342,
      "mean_anomaly_deg": 270.7384,
      "mean_motion_rev_day": 15.29349938
    },
    {
      "epoch": "2026-05-02T08:47:23.392608Z",
      "apogee_km": 478.5892410087645,
      "perigee_km": 476.83277274940247,
      "latitude_deg": 2.7444105090174197e-05,
      "longitude_deg": -93.01146251896552,
      "height_km": 478.3737200574506,
      "semi_major_axis_km": 6855.848006879083,
      "eccentricity": 0.0001281,
      "inclination_deg": 53.1513,
      "raan_deg": 259.1213,
      "arg_perigee_deg": 74.5371,
      "mean_anomaly_deg": 285.5771,
      "mean_motion_rev_day": 15.2936445
    },
    {
      "epoch": "2026-05-03T17:43:35.619744Z",
      "apogee_km": 478.6516094802564,
      "perigee_km": 476.8608501686258,
      "latitude_deg": -1.1581805931316903e-05,
      "longitude_deg": 125.21769493487538,
      "height_km": 478.4554101258613,
      "semi_major_axis_km": 6855.893229824441,
      "eccentricity": 0.0001306,
      "inclination_deg": 53.1507,
      "raan_deg": 252.7541,
      "arg_perigee_deg": 77.2529,
      "mean_anomaly_deg": 282.8617,
      "mean_motion_rev_day": 15.29349318
    }
  ]
}